IRIDIUM 36              
1 24967U 97056C   24319.39219733  .00001345  00000+0  44540-3 0  9993
2 24967  86.3948 263.1812 0002400  79.5019 280.6449 14.37224541421360
IRIDIUM 39              
1 25042U 97069D   24319.56073643  .00001837  00000+0  48266-3 0  9994
2 25042  86.3873 303.1626 0016169 308.5918  51.3836 14.48612949417880
IRIDIUM 38              
1 25043U 97069E   24319.55935884  .00001189  00000+0  38924-3 0  9998
2 25043  86.3934 323.4820 0004167  86.6811 273.4863 14.37704961415116
IRIDIUM 42              
1 25077U 97077A   24319.58283076  .00001100  00000+0  37242-3 0  9991
2 25077  86.3945 329.3775 0002960  92.7554 267.3981 14.35972559410396
IRIDIUM 44              
1 25078U 97077B   24319.48932203  .00001387  00000+0  43602-3 0  9998
2 25078  86.3919 311.9069 0003319  56.5211 303.6305 14.39834714412804
IRIDIUM 45              
1 25104U 97082A   24319.55546657  .00019988  00000+0  92048-3 0  9990
2 25104  86.3615 151.2259 0142726  50.0794 311.2885 15.11438256419508
IRIDIUM 24              
1 25105U 97082B   24319.59752189  .00001108  00000+0  33386-3 0  9999
2 25105  86.3942 171.2468 0013424  69.8922 290.3721 14.41664720412541
IRIDIUM 51              
1 25262U 98018A   24319.55662093  .00028129  00000+0  10088-2 0  9998
2 25262  86.3922 160.5618 0121210 345.8482  13.9374 15.21787165414196
